{
  "type": "FeatureCollection",
  "features": [
    {
      "type": "Feature",
      "properties": {
        "norad_id": 36258,
        "name": "FENGYUN 1C DEB",
        "group": "fengyun-1c-debris",
        "lat": 75.66339088353294,
        "lon": -7.448997016038898,
        "alt_km": 516.7512622071481,
        "timestamp": "2025-12-26T04:40:06.075027+00:00",
        "meta_object_name": "FENGYUN 1C DEB",
        "meta_object_id": "1999-025DWK",
        "meta_epoch": "2025-12-24T19:45:24.835104",
        "meta_mean_motion": 14.74908464,
        "meta_eccentricity": 0.01735701,
        "meta_inclination": 99.0854,
        "meta_ra_of_asc_node": 29.7766,
        "meta_arg_of_pericenter": 88.2677,
        "meta_mean_anomaly": 273.84,
        "meta_ephemeris_type": 0,
        "meta_classification_type": "U",
        "meta_norad_cat_id": 36258,
        "meta_element_set_no": 999,
        "meta_rev_at_epoch": 91000,
        "meta_bstar": 0.00030663963,
        "meta_mean_motion_dot": 2.554e-05,
        "meta_mean_motion_ddot": 0,
        "tle_line1": "1 36258U 99025DWK 25358.82320411  .00002554  00000+0  30664-3 0  9990",
        "tle_line2": "2 36258  99.0854  29.7766 0173570  88.2677 273.8400 14.74908464910000"
      },
      "geometry": {
        "type": "Point",
        "coordinates": [
          -7.448997016038898,
          75.66339088353294
        ]
      }
    },
    {
      "type": "Feature",
      "properties": {
        "norad_id": 36260,
        "name": "FENGYUN 1C DEB",
        "group": "fengyun-1c-debris",
        "lat": -51.17040849090349,
        "lon": 171.0703264594191,
        "alt_km": 837.6661186112487,
        "timestamp": "2025-12-26T04:40:06.075037+00:00",
        "meta_object_name": "FENGYUN 1C DEB",
        "meta_object_id": "1999-025DWM",
        "meta_epoch": "2025-12-24T19:20:24.734112",
        "meta_mean_motion": 14.15381135,
        "meta_eccentricity": 0.00153864,
        "meta_inclination": 98.6615,
        "meta_ra_of_asc_node": 0.6385,
        "meta_arg_of_pericenter": 213.0221,
        "meta_mean_anomaly": 146.9994,
        "meta_ephemeris_type": 0,
        "meta_classification_type": "U",
        "meta_norad_cat_id": 36260,
        "meta_element_set_no": 999,
        "meta_rev_at_epoch": 87979,
        "meta_bstar": 0.00015734209,
        "meta_mean_motion_dot": 2.64e-06,
        "meta_mean_motion_ddot": 0,
        "tle_line1": "1 36260U 99025DWM 25358.80584183  .00000264  00000+0  15734-3 0  9996",
        "tle_line2": "2 36260  98.6615   0.6385 0015386 213.0221 146.9994 14.15381135879794"
      },
      "geometry": {
        "type": "Point",
        "coordinates": [
          171.0703264594191,
          -51.17040849090349
        ]
      }
    },
    {
      "type": "Feature",
      "properties": {
        "norad_id": 36261,
        "name": "FENGYUN 1C DEB",
        "group": "fengyun-1c-debris",
        "lat": -34.01772140253014,
        "lon": 66.38027351300977,
        "alt_km": 1356.8406150668552,
        "timestamp": "2025-12-26T04:40:06.075048+00:00",
        "meta_object_name": "FENGYUN 1C DEB",
        "meta_object_id": "1999-025DWN",
        "meta_epoch": "2025-12-24T23:04:08.652864",
        "meta_mean_motion": 13.45492576,
        "meta_eccentricity": 0.03558493,
        "meta_inclination": 101.3651,
        "meta_ra_of_asc_node": 252.7857,
        "meta_arg_of_pericenter": 46.9112,
        "meta_mean_anomaly": 316.1219,
        "meta_ephemeris_type": 0,
        "meta_classification_type": "U",
        "meta_norad_cat_id": 36261,
        "meta_element_set_no": 999,
        "meta_rev_at_epoch": 84597,
        "meta_bstar": 0.0006499036,
        "meta_mean_motion_dot": 5.11e-06,
        "meta_mean_motion_ddot": 0,
        "tle_line1": "1 36261U 99025DWN 25358.96121126  .00000511  00000+0  64990-3 0  9991",
        "tle_line2": "2 36261 101.3651 252.7857 0355849  46.9112 316.1219 13.45492576845972"
      },
      "geometry": {
        "type": "Point",
        "coordinates": [
          66.38027351300977,
          -34.01772140253014
        ]
      }
    },
    {
      "type": "Feature",
      "properties": {
        "norad_id": 36262,
        "name": "FENGYUN 1C DEB",
        "group": "fengyun-1c-debris",
        "lat": -80.90752500859705,
        "lon": -19.32041197699609,
        "alt_km": 770.1140909648757,
        "timestamp": "2025-12-26T04:40:06.075058+00:00",
        "meta_object_name": "FENGYUN 1C DEB",
        "meta_object_id": "1999-025DWP",
        "meta_epoch": "2025-12-24T22:49:21.024192",
        "meta_mean_motion": 14.27822117,
        "meta_eccentricity": 0.0059764,
        "meta_inclination": 98.9607,
        "meta_ra_of_asc_node": 239.7712,
        "meta_arg_of_pericenter": 239.4919,
        "meta_mean_anomaly": 120.0352,
        "meta_ephemeris_type": 0,
        "meta_classification_type": "U",
        "meta_norad_cat_id": 36262,
        "meta_element_set_no": 999,
        "meta_rev_at_epoch": 89671,
        "meta_bstar": 0.00026973,
        "meta_mean_motion_dot": 6.33e-06,
        "meta_mean_motion_ddot": 0,
        "tle_line1": "1 36262U 99025DWP 25358.95093778  .00000633  00000+0  26973-3 0  9996",
        "tle_line2": "2 36262  98.9607 239.7712 0059764 239.4919 120.0352 14.27822117896718"
      },
      "geometry": {
        "type": "Point",
        "coordinates": [
          -19.32041197699609,
          -80.90752500859705
        ]
      }
    },
    {
      "type": "Feature",
      "properties": {
        "norad_id": 36263,
        "name": "FENGYUN 1C DEB",
        "group": "fengyun-1c-debris",
        "lat": -44.58991373884016,
        "lon": 53.07007814765885,
        "alt_km": 720.7966293333711,
        "timestamp": "2025-12-26T04:40:06.075068+00:00",
        "meta_object_name": "FENGYUN 1C DEB",
        "meta_object_id": "1999-025DWQ",
        "meta_epoch": "2025-12-24T21:43:53.936832",
        "meta_mean_motion": 14.45786448,
        "meta_eccentricity": 0.0035498,
        "meta_inclination": 98.9986,
        "meta_ra_of_asc_node": 240.6907,
        "meta_arg_of_pericenter": 227.7393,
        "meta_mean_anomaly": 132.0784,
        "meta_ephemeris_type": 0,
        "meta_classification_type": "U",
        "meta_norad_cat_id": 36263,
        "meta_element_set_no": 999,
        "meta_rev_at_epoch": 88161,
        "meta_bstar": 0.0018996,
        "meta_mean_motion_dot": 6.745e-05,
        "meta_mean_motion_ddot": 0,
        "tle_line1": "1 36263U 99025DWQ 25358.90548538  .00006745  00000+0  18996-2 0  9996",
        "tle_line2": "2 36263  98.9986 240.6907 0035498 227.7393 132.0784 14.45786448881611"
      },
      "geometry": {
        "type": "Point",
        "coordinates": [
          53.07007814765885,
          -44.58991373884016
        ]
      }
    },
    {
      "type": "Feature",
      "properties": {
        "norad_id": 36267,
        "name": "FENGYUN 1C DEB",
        "group": "fengyun-1c-debris",
        "lat": 66.69777497245563,
        "lon": 147.3876602527416,
        "alt_km": 809.2153469543127,
        "timestamp": "2025-12-26T04:40:06.075078+00:00",
        "meta_object_name": "FENGYUN 1C DEB",
        "meta_object_id": "1999-025DWU",
        "meta_epoch": "2025-12-24T08:32:51.428256",
        "meta_mean_motion": 14.09131706,
        "meta_eccentricity": 0.01263202,
        "meta_inclination": 98.5603,
        "meta_ra_of_asc_node": 305.1713,
        "meta_arg_of_pericenter": 176.9466,
        "meta_mean_anomaly": 335.4349,
        "meta_ephemeris_type": 0,
        "meta_classification_type": "U",
        "meta_norad_cat_id": 36267,
        "meta_element_set_no": 999,
        "meta_rev_at_epoch": 86693,
        "meta_bstar": 0.00070779992,
        "meta_mean_motion_dot": 1.282e-05,
        "meta_mean_motion_ddot": 0,
        "tle_line1": "1 36267U 99025DWU 25358.35615079  .00001282  00000+0  70780-3 0  9995",
        "tle_line2": "2 36267  98.5603 305.1713 0126320 176.9466 335.4349 14.09131706866935"
      },
      "geometry": {
        "type": "Point",
        "coordinates": [
          147.3876602527416,
          66.69777497245563
        ]
      }
    },
    {
      "type": "Feature",
      "properties": {
        "norad_id": 36269,
        "name": "FENGYUN 1C DEB",
        "group": "fengyun-1c-debris",
        "lat": 15.98093817282079,
        "lon": -59.915082388102775,
        "alt_km": 918.9627946470528,
        "timestamp": "2025-12-26T04:40:06.075088+00:00",
        "meta_object_name": "FENGYUN 1C DEB",
        "meta_object_id": "1999-025DWW",
        "meta_epoch": "2025-12-14T01:28:51.707712",
        "meta_mean_motion": 14.27043075,
        "meta_eccentricity": 0.02331074,
        "meta_inclination": 99.1079,
        "meta_ra_of_asc_node": 290.0784,
        "meta_arg_of_pericenter": 275.9651,
        "meta_mean_anomaly": 81.5008,
        "meta_ephemeris_type": 0,
        "meta_classification_type": "U",
        "meta_norad_cat_id": 36269,
        "meta_element_set_no": 999,
        "meta_rev_at_epoch": 87735,
        "meta_bstar": 0.00079666975,
        "meta_mean_motion_dot": 2.532e-05,
        "meta_mean_motion_ddot": 0,
        "tle_line1": "1 36269U 99025DWW 25348.06170958  .00002532  00000+0  79667-3 0  9998",
        "tle_line2": "2 36269  99.1079 290.0784 0233107 275.9651  81.5008 14.27043075877359"
      },
      "geometry": {
        "type": "Point",
        "coordinates": [
          -59.915082388102775,
          15.98093817282079
        ]
      }
    }
  ]
}